[{"OBJECT_NAME":"NEXTSAT-1","OBJECT_ID":"2018-099BF","EPOCH":"2026-03-09T16:24:07.497504","MEAN_MOTION":15.08057555,"ECCENTRICITY":0.001132,"INCLINATION":97.4203,"RA_OF_ASC_NODE":114.8574,"ARG_OF_PERICENTER":323.961,"MEAN_ANOMALY":36.0854,"EPHEMERIS_TYPE":0,"CLASSIFICATION_TYPE":"U","NORAD_CAT_ID":43811,"ELEMENT_SET_NO":999,"REV_AT_EPOCH":39688,"BSTAR":0.00029857014,"MEAN_MOTION_DOT":4.546e-5,"MEAN_MOTION_DDOT":0},{"OBJECT_NAME":"STARLINK-35351","OBJECT_ID":"2025-211S","EPOCH":"2026-03-09T16:20:15.632736","MEAN_MOTION":15.05631723,"ECCENTRICITY":0.00015109,"INCLINATION":97.6038,"RA_OF_ASC_NODE":114.1056,"ARG_OF_PERICENTER":99.7141,"MEAN_ANOMALY":260.4256,"EPHEMERIS_TYPE":0,"CLASSIFICATION_TYPE":"U","NORAD_CAT_ID":65668,"ELEMENT_SET_NO":999,"REV_AT_EPOCH":2704,"BSTAR":-0.00011469674,"MEAN_MOTION_DOT":-1.715e-5,"MEAN_MOTION_DDOT":0}]
